{
  "type": "FeatureCollection",
  "features": [
    {
      "type": "Feature",
      "properties": {
        "norad_id": 66821,
        "name": "STARLINK-35966",
        "group": "last-30-days",
        "lat": 15.244687912155468,
        "lon": 1.3917347712454078,
        "alt_km": 374.9108031009682,
        "timestamp": "2025-12-16T21:38:55.918484+00:00",
        "meta_object_name": "STARLINK-35966",
        "meta_object_id": "2025-280A",
        "meta_epoch": "2025-12-16T06:00:02.999808",
        "meta_mean_motion": 15.67481007,
        "meta_eccentricity": 0.0003857,
        "meta_inclination": 69.9985,
        "meta_ra_of_asc_node": 188.9107,
        "meta_arg_of_pericenter": 272.7794,
        "meta_mean_anomaly": 176.0843,
        "meta_ephemeris_type": 0,
        "meta_classification_type": "U",
        "meta_norad_cat_id": 66821,
        "meta_element_set_no": 999,
        "meta_rev_at_epoch": 346,
        "meta_bstar": -0.0204119,
        "meta_mean_motion_dot": -0.01963977,
        "meta_mean_motion_ddot": 0,
        "tle_line1": "1 66821U 25280A   25350.25003472 -.01963977  00000+0 -20412-1 0  9991",
        "tle_line2": "2 66821  69.9985 188.9107 0003857 272.7794 176.0843 15.67481007  3467"
      },
      "geometry": {
        "type": "Point",
        "coordinates": [
          1.3917347712454078,
          15.244687912155468
        ]
      }
    },
    {
      "type": "Feature",
      "properties": {
        "norad_id": 66822,
        "name": "STARLINK-35958",
        "group": "last-30-days",
        "lat": 13.44436358224696,
        "lon": 2.0919661780973593,
        "alt_km": 375.0817898022542,
        "timestamp": "2025-12-16T21:38:55.918494+00:00",
        "meta_object_name": "STARLINK-35958",
        "meta_object_id": "2025-280B",
        "meta_epoch": "2025-12-16T06:00:02.999808",
        "meta_mean_motion": 15.67482958,
        "meta_eccentricity": 0.0003714,
        "meta_inclination": 69.9986,
        "meta_ra_of_asc_node": 188.9091,
        "meta_arg_of_pericenter": 273.0159,
        "meta_mean_anomaly": 177.7617,
        "meta_ephemeris_type": 0,
        "meta_classification_type": "U",
        "meta_norad_cat_id": 66822,
        "meta_element_set_no": 999,
        "meta_rev_at_epoch": 346,
        "meta_bstar": -0.020390148,
        "meta_mean_motion_dot": -0.01962123,
        "meta_mean_motion_ddot": 0,
        "tle_line1": "1 66822U 25280B   25350.25003472 -.01962123  00000+0 -20390-1 0  9999",
        "tle_line2": "2 66822  69.9986 188.9091 0003714 273.0159 177.7617 15.67482958  3465"
      },
      "geometry": {
        "type": "Point",
        "coordinates": [
          2.0919661780973593,
          13.44436358224696
        ]
      }
    },
    {
      "type": "Feature",
      "properties": {
        "norad_id": 66823,
        "name": "STARLINK-35957",
        "group": "last-30-days",
        "lat": 11.65119414870211,
        "lon": 2.7775129753076135,
        "alt_km": 375.3200584810784,
        "timestamp": "2025-12-16T21:38:55.918504+00:00",
        "meta_object_name": "STARLINK-35957",
        "meta_object_id": "2025-280C",
        "meta_epoch": "2025-12-16T06:00:02.999808",
        "meta_mean_motion": 15.6748192,
        "meta_eccentricity": 0.00036786,
        "meta_inclination": 69.9988,
        "meta_ra_of_asc_node": 188.9067,
        "meta_arg_of_pericenter": 273.7461,
        "meta_mean_anomaly": 178.9517,
        "meta_ephemeris_type": 0,
        "meta_classification_type": "U",
        "meta_norad_cat_id": 66823,
        "meta_element_set_no": 999,
        "meta_rev_at_epoch": 346,
        "meta_bstar": -0.020420009,
        "meta_mean_motion_dot": -0.01964553,
        "meta_mean_motion_ddot": 0,
        "tle_line1": "1 66823U 25280C   25350.25003472 -.01964553  00000+0 -20420-1 0  9993",
        "tle_line2": "2 66823  69.9988 188.9067 0003678 273.7461 178.9517 15.67481920  3463"
      },
      "geometry": {
        "type": "Point",
        "coordinates": [
          2.7775129753076135,
          11.65119414870211
        ]
      }
    },
    {
      "type": "Feature",
      "properties": {
        "norad_id": 66824,
        "name": "STARLINK-35896",
        "group": "last-30-days",
        "lat": 9.861627097834536,
        "lon": 3.4523108162923917,
        "alt_km": 375.56011063940423,
        "timestamp": "2025-12-16T21:38:55.918514+00:00",
        "meta_object_name": "STARLINK-35896",
        "meta_object_id": "2025-280D",
        "meta_epoch": "2025-12-16T06:00:02.999808",
        "meta_mean_motion": 15.67486218,
        "meta_eccentricity": 0.00038022,
        "meta_inclination": 69.9985,
        "meta_ra_of_asc_node": 188.9045,
        "meta_arg_of_pericenter": 273.8647,
        "meta_mean_anomaly": 180.7465,
        "meta_ephemeris_type": 0,
        "meta_classification_type": "U",
        "meta_norad_cat_id": 66824,
        "meta_element_set_no": 999,
        "meta_rev_at_epoch": 346,
        "meta_bstar": -0.020504559,
        "meta_mean_motion_dot": -0.01972168,
        "meta_mean_motion_ddot": 0,
        "tle_line1": "1 66824U 25280D   25350.25003472 -.01972168  00000+0 -20505-1 0  9999",
        "tle_line2": "2 66824  69.9985 188.9045 0003802 273.8647 180.7465 15.67486218  3461"
      },
      "geometry": {
        "type": "Point",
        "coordinates": [
          3.4523108162923917,
          9.861627097834536
        ]
      }
    },
    {
      "type": "Feature",
      "properties": {
        "norad_id": 66825,
        "name": "STARLINK-35476",
        "group": "last-30-days",
        "lat": 8.051704101827418,
        "lon": 4.126569524049244,
        "alt_km": 375.77860370080634,
        "timestamp": "2025-12-16T21:38:55.918524+00:00",
        "meta_object_name": "STARLINK-35476",
        "meta_object_id": "2025-280E",
        "meta_epoch": "2025-12-16T06:00:02.999808",
        "meta_mean_motion": 15.67479511,
        "meta_eccentricity": 0.00037546,
        "meta_inclination": 69.9986,
        "meta_ra_of_asc_node": 188.9019,
        "meta_arg_of_pericenter": 275.5651,
        "meta_mean_anomaly": 180.9641,
        "meta_ephemeris_type": 0,
        "meta_classification_type": "U",
        "meta_norad_cat_id": 66825,
        "meta_element_set_no": 999,
        "meta_rev_at_epoch": 331,
        "meta_bstar": -0.02034508,
        "meta_mean_motion_dot": -0.01958084,
        "meta_mean_motion_ddot": 0,
        "tle_line1": "1 66825U 25280E   25350.25003472 -.01958084  00000+0 -20345-1 0  9993",
        "tle_line2": "2 66825  69.9986 188.9019 0003754 275.5651 180.9641 15.67479511  3314"
      },
      "geometry": {
        "type": "Point",
        "coordinates": [
          4.126569524049244,
          8.051704101827418
        ]
      }
    },
    {
      "type": "Feature",
      "properties": {
        "norad_id": 66826,
        "name": "STARLINK-35898",
        "group": "last-30-days",
        "lat": 6.255121432407902,
        "lon": 4.789442996653002,
        "alt_km": 376.0122131034368,
        "timestamp": "2025-12-16T21:38:55.918538+00:00",
        "meta_object_name": "STARLINK-35898",
        "meta_object_id": "2025-280F",
        "meta_epoch": "2025-12-16T06:00:02.999808",
        "meta_mean_motion": 15.67481966,
        "meta_eccentricity": 0.00037952,
        "meta_inclination": 69.9985,
        "meta_ra_of_asc_node": 188.8993,
        "meta_arg_of_pericenter": 276.2831,
        "meta_mean_anomaly": 182.1622,
        "meta_ephemeris_type": 0,
        "meta_classification_type": "U",
        "meta_norad_cat_id": 66826,
        "meta_element_set_no": 999,
        "meta_rev_at_epoch": 346,
        "meta_bstar": -0.020394832,
        "meta_mean_motion_dot": -0.01962531,
        "meta_mean_motion_ddot": 0,
        "tle_line1": "1 66826U 25280F   25350.25003472 -.01962531  00000+0 -20395-1 0  9991",
        "tle_line2": "2 66826  69.9985 188.8993 0003795 276.2831 182.1622 15.67481966  3463"
      },
      "geometry": {
        "type": "Point",
        "coordinates": [
          4.789442996653002,
          6.255121432407902
        ]
      }
    },
    {
      "type": "Feature",
      "properties": {
        "norad_id": 66827,
        "name": "STARLINK-35959",
        "group": "last-30-days",
        "lat": 4.451189695301714,
        "lon": 5.450644726534375,
        "alt_km": 376.1831590246338,
        "timestamp": "2025-12-16T21:38:55.918548+00:00",
        "meta_object_name": "STARLINK-35959",
        "meta_object_id": "2025-280G",
        "meta_epoch": "2025-12-16T06:00:02.999808",
        "meta_mean_motion": 15.67479937,
        "meta_eccentricity": 0.00036838,
        "meta_inclination": 69.9984,
        "meta_ra_of_asc_node": 188.8972,
        "meta_arg_of_pericenter": 276.694,
        "meta_mean_anomaly": 183.6677,
        "meta_ephemeris_type": 0,
        "meta_classification_type": "U",
        "meta_norad_cat_id": 66827,
        "meta_element_set_no": 999,
        "meta_rev_at_epoch": 346,
        "meta_bstar": -0.020349413,
        "meta_mean_motion_dot": -0.01958414,
        "meta_mean_motion_ddot": 0,
        "tle_line1": "1 66827U 25280G   25350.25003472 -.01958414  00000+0 -20349-1 0  9996",
        "tle_line2": "2 66827  69.9984 188.8972 0003683 276.6940 183.6677 15.67479937  3462"
      },
      "geometry": {
        "type": "Point",
        "coordinates": [
          5.450644726534375,
          4.451189695301714
        ]
      }
    }
  ]
}